1 52757U 22057AB 26162.23834509 .00016845 00000+0 28968-3 0 9992 
2 52757 97.6592 320.7039 0005908 96.8427 263.3497 15.51177510225420 
1 55324U 23011A 26161.95324857 .00004111 00000+0 17995-3 0 9995 
2 55324 40.4991 28.4311 0003501 327.0265 33.0326 15.22872392186891 
1 55326U 23011C 26160.37868959 .00004206 00000+0 18395-3 0 9998 
2 55326 40.4982 34.4522 0004314 308.3612 51.6810 15.22867772186660 
1 55327U 23011D 26161.95263151 .00004208 00000+0 18397-3 0 9991 
2 55327 40.4991 26.8976 0003825 314.9488 45.1010 15.22874456186903 
1 56191U 23054P 26162.21393731 .00001392 00000+0 54734-4 0 9993 
2 56191 97.2710 49.7034 0004741 70.7711 289.4041 15.27294070176117 
1 56193U 23054R 26162.21384786 .00004772 00000+0 18112-3 0 9999 
2 56193 97.2742 47.9653 0003971 80.3958 279.7730 15.27300472176116 
1 56200U 23054Y 26162.21374109 .00004646 00000+0 17642-3 0 9993 
2 56200 97.2718 48.7354 0004008 72.1815 287.9861 15.27297080176114 
