OBJECT_NAME,OBJECT_ID,EPOCH,MEAN_MOTION,ECCENTRICITY,INCLINATION,RA_OF_ASC_NODE,ARG_OF_PERICENTER,MEAN_ANOMALY,EPHEMERIS_TYPE,CLASSIFICATION_TYPE,NORAD_CAT_ID,ELEMENT_SET_NO,REV_AT_EPOCH,BSTAR,MEAN_MOTION_DOT,MEAN_MOTION_DDOT
HAWK-5A,2022-057AB,2026-06-11T05:43:13.015776,15.51177510,.0005908,97.6592,320.7039,96.8427,263.3497,0,U,52757,999,22542,.28968424E-3,.16845E-3,0
HAWK-6B,2023-011A,2026-06-10T22:52:40.676448,15.22872392,.00035018,40.4991,28.4311,327.0265,33.0326,0,U,55324,999,18689,.17994917E-3,.4111E-4,0
HAWK-6C,2023-011C,2026-06-09T09:05:18.780576,15.22867772,.00043141,40.4982,34.4522,308.3612,51.6810,0,U,55326,999,18666,.18394517E-3,.4206E-4,0
HAWK-6A,2023-011D,2026-06-10T22:51:47.362464,15.22874456,.00038251,40.4991,26.8976,314.9488,45.1010,0,U,55327,999,18690,.18397233E-3,.4208E-4,0
HAWK-7A,2023-054P,2026-06-11T05:08:04.183584,15.27294070,.00047415,97.2710,49.7034,70.7711,289.4041,0,U,56191,999,17611,.54733819E-4,.1392E-4,0
HAWK-7B,2023-054R,2026-06-11T05:07:56.455104,15.27300472,.0003971,97.2742,47.9653,80.3958,279.7730,0,U,56193,999,17611,.18112303E-3,.4772E-4,0
HAWK-7C,2023-054Y,2026-06-11T05:07:47.230176,15.27297080,.00040082,97.2718,48.7354,72.1815,287.9861,0,U,56200,999,17611,.17642445E-3,.4646E-4,0
